STARLINK-36815          
1 68313U 26057V   26101.84219235  .00204017  00000+0  10419-2 0  9995
2 68313  97.2856 225.9334 0001536 147.7180 212.4182 15.80800333  3500
STARLINK-37155          
1 68314U 26057W   26101.84069797  .00377401  00000+0  18788-2 0  9997
2 68314  97.2855 225.9355 0001537  56.5521 303.5894 15.80911548  3503
STARLINK-37150          
1 68315U 26057X   26101.25002315  .00165803  00000+0  10956-2 0  9996
2 68315  97.2856 225.3014 0001062  31.8477 186.1648 15.75093735  4506
STARLINK-37154          
1 68316U 26057Y   26101.26948011  .00265792  00000+0  13385-2 0  9997
2 68316  97.2851 225.3334 0001378  79.8270 280.3154 15.80946486  3414
STARLINK-37139          
1 68317U 26057Z   26101.20693396  .00258671  00000+0  13057-2 0  9999
2 68317  97.2853 225.2652 0001666 101.1078 259.0378 15.80914221  3406
STARLINK-37113          
1 68318U 26057AA  26101.25002315 -.01882846  00000+0 -12738-1 0  9994
2 68318  97.2856 225.3143 0001561  74.3822 176.1509 15.78056005  4509
PROGRESS-MS 33          
1 68319U 26058A   26101.81196220  .00005753  00000+0  11297-3 0  9999
2 68319  51.6328 268.5866 0006452 301.0443  58.9912 15.48876576  2998
STARLINK-36987          
1 68321U 26059A   26101.69347892  .00233690  00000+0  11515-2 0  9997
2 68321  53.1575 197.4902 0000617  93.9196 266.1897 15.80953592  3190
STARLINK-37088          
1 68322U 26059B   26101.69198115  .00156869  00000+0  78224-3 0  9993
2 68322  53.1576 197.4797 0000911  68.5360 291.5760 15.80920734  3195
STARLINK-36983          
1 68323U 26059C   26101.75599506 -.00444937  00000+0 -24142-2 0  9997
2 68323  53.1575 197.1684 0000992 194.0568 166.0427 15.80461856  3204
STARLINK-37164          
1 68324U 26059D   26101.75444914  .00140954  00000+0  70449-3 0  9992
2 68324  53.1576 197.1580 0000888  96.1413 263.9711 15.80922075  4339
STARLINK-36309          
1 68325U 26059E   26101.75369647  .00228466  00000+0  11263-2 0  9995
2 68325  53.1574 197.1530 0001252 147.5746 212.5354 15.80956952  3208
STARLINK-37206          
1 68326U 26059F   26101.75295187  .00137043  00000+0  68425-3 0  9996
2 68326  53.1579 197.1481 0001166  71.6685 288.4465 15.80956914  3205
STARLINK-37199          
1 68327U 26059G   26101.83334491 -.01957545  00000+0 -19341-1 0  9999
2 68327  53.1588 196.8723 0001033  52.3251 342.2046 15.68344578  4375
STARLINK-36245          
1 68328U 26059H   26101.75069770  .00248613  00000+0  12221-2 0  9993
2 68328  53.1576 197.1329 0001016  89.7192 270.3947 15.80964086  3206
STARLINK-37204          
1 68329U 26059J   26101.75166529 -.00771301  00000+0 -45219-2 0  9994
2 68329  53.1578 197.1389 0000585  58.6027 301.5052 15.79614147  3209
STARLINK-37001          
1 68330U 26059K   26101.83334491 -.01909941  00000+0 -20977-1 0  9997
2 68330  53.1586 196.9098 0000774  73.0924 302.8253 15.65683854  4373
STARLINK-36932          
1 68331U 26059L   26101.74920109  .00212589  00000+0  10513-2 0  9993
2 68331  53.1576 197.1226 0001608  66.1175 294.0016 15.80934822  3208
STARLINK-37205          
1 68332U 26059M   26101.68540348 -.00737804  00000+0 -42740-2 0  9991
2 68332  53.1574 197.4359 0001464  14.0611 346.0451 15.79781988  3194
STARLINK-37180          
1 68333U 26059N   26101.83334491 -.01907839  00000+0 -23168-1 0  9999
2 68333  53.1584 196.9554 0000879  76.8350 276.4282 15.63171689  4375
STARLINK-37191          
1 68334U 26059P   26101.68395490 -.00741762  00000+0 -43366-2 0  9992
2 68334  53.1577 197.4257 0002276  36.6415 323.4763 15.79584973  3190
STARLINK-37217          
1 68335U 26059Q   26101.83334491 -.01929887  00000+0 -13038-1 0  9993
2 68335  53.1591 196.6740 0001119  59.0215  72.7369 15.77620194  4378
STARLINK-37143          
1 68336U 26059R   26101.74544854  .00186249  00000+0  92438-3 0  9997
2 68336  53.1578 197.0973 0001012  81.9388 278.1749 15.80933417  3208
STARLINK-36237          
1 68337U 26059S   26101.74469677  .00230145  00000+0  11346-2 0  9990
2 68337  53.1582 197.0924 0000838  67.5773 292.5339 15.80952654  3202
STARLINK-36254          
1 68338U 26059T   26101.67997586  .00267128  00000+0  13142-2 0  9995
2 68338  53.1576 197.3983 0001603  63.6845 296.4342 15.80894819  3195
STARLINK-37200          
1 68339U 26059U   26101.74393839  .00203153  00000+0  10040-2 0  9997
2 68339  53.1580 197.0872 0000986  65.6370 294.4756 15.80975756  3202
STARLINK-37185          
1 68340U 26059V   26101.74244544  .00226947  00000+0  11185-2 0  9994
2 68340  53.1583 197.0767 0001261  87.7210 272.3957 15.80968647  3204
STARLINK-37181          
1 68341U 26059W   26101.74169654  .00263278  00000+0  12918-2 0  9996
2 68341  53.1579 197.0717 0001085  65.0296 295.0839 15.80963861  3206
STARLINK-37192          
1 68342U 26059X   26101.83334491 -.01904644  00000+0 -24909-1 0  9994
2 68342  53.1591 196.9289 0000866  76.0579 289.6553 15.61280792  4370
STARLINK-37158          
1 68343U 26059Y   26101.73945731  .00060904  00000+0  31036-3 0  9999
2 68343  53.1579 197.0565 0001740  59.2967 300.8227 15.80842660  3206
STARLINK-36380          
1 68344U 26059Z   26101.83334491 -.01931530  00000+0 -13119-1 0  9991
2 68344  53.1591 196.6132 0001106  62.0209  99.3034 15.77504402  4373
STARLINK-37214          
1 68345U 26059AA  26101.73794437  .00241097  00000+0  11864-2 0  9996
2 68345  53.1580 197.0460 0001492  40.0676 320.0456 15.80962617  3206
STARLINK-37169          
1 68346U 26059AB  26101.83334491 -.01933913  00000+0 -12594-1 0  9996
2 68346  53.1590 196.5637 0001009  74.3921 110.6357 15.78437072  4376
STARLINK-37136          
1 68347U 26059AC  26101.73644554  .00237580  00000+0  11699-2 0  9990
2 68347  53.1579 197.0358 0000949  80.9894 279.1236 15.80956378  3200
STARLINK-37182          
1 68348U 26059AD  26101.73869279  .00296884  00000+0  14491-2 0  9999
2 68348  53.1583 197.0510 0001118  44.5624 315.5488 15.80984655  3205
STARLINK-37183          
1 68349U 26059AE  26101.73569466  .00253927  00000+0  12492-2 0  9995
2 68349  53.1585 197.0313 0000968 132.2819 227.8286 15.80930966  3209
CENTISPACE-1 OBJECT A   
1 68350U 26060A   26100.54543581 -.00450719  00000+0 -71553-1 0  9999
2 68350  54.9791 311.6710 0014548 308.4164  51.5528 14.74168550  2791
CENTISPACE-1 OBJECT B   
1 68351U 26060B   26101.83430928  .00001089  00000+0  19596-3 0  9994
2 68351  54.9816 306.4195 0010994 331.4771  28.5625 14.73919436  2989
CENTISPACE-1 OBJECT C   
1 68352U 26060C   26100.67994892 -.00000027  00000+0  27225-4 0  9992
2 68352  54.9807 311.1024 0012132 355.4155   4.6731 14.74350116  2812
CENTISPACE-1 OBJECT D   
1 68353U 26060D   26100.61214630 -.00000022  00000+0  27714-4 0  9990
2 68353  54.9833 311.3783 0009228 348.8563  11.2230 14.74540778  2809
CENTISPACE-1 OBJECT E   
1 68354U 26060E   26101.89899132 -.00000061  00000+0  21993-4 0  9994
2 68354  54.9775 306.1170 0012913 355.5693   4.5189 14.74672677  2993
CENTISPACE-1 OBJECT F   
1 68355U 26060F   26101.56011192 -.00000062  00000+0  21922-4 0  9994
2 68355  54.9728 307.4864 0013047 343.5389  16.5185 14.74528499  2940
CENTISPACE-1 OBJECT G   
1 68356U 26060G   26100.40540514 -.00000017  00000+0  28437-4 0  9990
2 68356  54.9857 312.2040 0014054 349.8048  10.2665 14.75091693  2771
CENTISPACE-1 OBJECT H   
1 68357U 26060H   26100.13415012 -.00000020  00000+0  28091-4 0  9995
2 68357  54.9874 313.3051 0012979 355.4603   4.6277 14.74683357  2734
CENTISPACE-1 OBJECT J   
1 68358U 26060J   26101.35418697 -.00000060  00000+0  22184-4 0  9994
2 68358  54.9813 308.3220 0012615 354.1199   5.9650 14.74485324  2916
CENTISPACE-1 OBJECT K   
1 68359U 26060K   26094.64400183  .00000084  00000+0  43131-4 0  9999
2 68359  54.9800 335.6935 0014769 336.0624  23.9687 14.75283234  1920
RASSVET-3 1             
1 68360U 26061A   26101.86820441  .00074058  71711-6  29558-3 0  9990
2 68360  82.2945  87.0224 0022307   5.9126 354.2402 15.86023838  3046
RASSVET-3 2             
1 68361U 26061B   26101.86460679  .00101469  24893-5  32603-3 0  9994
2 68361  82.2968  87.0201 0023801   3.1549 356.9868 15.90339091  3047
RASSVET-3 3             
1 68362U 26061C   26101.86442924  .00102878  25915-5  33055-3 0  9991
2 68362  82.2966  87.0194 0023595   2.9942 357.1466 15.90349401  3044
RASSVET-3 4             
1 68363U 26061D   26101.86447266  .00089761  16945-5  29087-3 0  9994
2 68363  82.2970  87.0200 0023952   2.8769 357.2636 15.90157745  3049
RASSVET-3 5             
1 68364U 26061E   26101.86412564  .00099700  23620-5  32112-3 0  9993
2 68364  82.2967  87.0190 0023703   2.8876 357.2528 15.90294668  3043
RASSVET-3 6             
1 68365U 26061F   26101.86289267  .00096315  21331-5  30796-3 0  9998
2 68365  82.2969  87.0172 0023500   3.1635 356.9781 15.90443937  3040
RASSVET-3 7             
1 68366U 26061G   26101.86373740  .00100528  24222-5  32321-3 0  9999
2 68366  82.2967  87.0186 0023504   2.9317 357.2087 15.90338566  3046
RASSVET-3 8             
1 68367U 26061H   26101.86392807  .00100155  23946-5  32254-3 0  9998
2 68367  82.2968  87.0186 0023517   2.8019 357.3380 15.90306084  3047
RASSVET-3 9             
1 68368U 26061J   26101.85947817  .00099780  23872-5  31342-3 0  9991
2 68368  82.2956  87.0104 0022949   4.3815 355.7654 15.90815564  3048
RASSVET-3 10            
1 68369U 26061K   26101.86346684  .00092969  19035-5  30014-3 0  9991
2 68369  82.2970  87.0182 0023539   2.8984 357.2419 15.90250815  3045
RASSVET-3 11            
1 68370U 26061L   26101.73713404  .00097964  22394-5  31635-3 0  9999
2 68370  82.2971  87.1601 0023363   3.2703 356.8717 15.90256698  3023
RASSVET-3 12            
1 68371U 26061M   26101.86205383  .00103608  26551-5  32917-3 0  9992
2 68371  82.2968  87.0159 0022961   2.7034 357.4357 15.90596156  3046
RASSVET-3 13            
1 68372U 26061N   26101.86166103  .00100348  24232-5  31749-3 0  9993
2 68372  82.2965  87.0150 0022550   2.7431 357.3960 15.90691538  3049
